CTC2_L_00180016-03
1 61110U 22779QG  26037.47792824  .00000000  00000+0  00000-0 0  9996
2 61110  60.0000 180.0000 0000000   0.0000   0.0000 14.79785919    17
CTC2_L_00180016-04
1 61111U 22535RE  26037.47792824  .00000000  00000+0  00000-0 0  9997
2 61111  60.0000 180.0000 0000000   0.0000  90.0000 14.79785919    17
CTC2_L_00180017-01
1 61112U 22687UR  26037.47792824  .00000000  00000+0  00000-0 0  9996
2 61112  60.0000 192.0000 0000000   0.0000 192.0000 14.79785919    14
CTC2_L_00180017-02
1 61113U 26041QG  26037.47792824  .00000000  00000+0  00000-0 0  9995
2 61113  60.0000 192.0000 0000000   0.0000 282.0000 14.79785919    15
CTC2_L_00180017-03
1 61114U 26914BC  26037.47792824  .00000000  00000+0  00000-0 0  9995
2 61114  60.0000 192.0000 0000000   0.0000  12.0000 14.79785919    17
CTC2_L_00180017-04
1 61115U 22461QA  26037.47792824  .00000000  00000+0  00000-0 0  9999
2 61115  60.0000 192.0000 0000000   0.0000 102.0000 14.79785919    18
CTC2_L_00180018-01
1 61116U 23294SY  26037.47792824  .00000000  00000+0  00000-0 0  9995
2 61116  60.0000 204.0000 0000000   0.0000 204.0000 14.79785919    16
CTC2_L_00180018-02
1 61117U 24364ZN  26037.47792824  .00000000  00000+0  00000-0 0  9995
2 61117  60.0000 204.0000 0000000   0.0000 294.0000 14.79785919    16
CTC2_L_00180018-03
1 61118U 23408DY  26037.47792824  .00000000  00000+0  00000-0 0  9994
2 61118  60.0000 204.0000 0000000   0.0000  24.0000 14.79785919    18
CTC2_L_00180018-04
1 61119U 24275OQ  26037.47792824  .00000000  00000+0  00000-0 0  9998
2 61119  60.0000 204.0000 0000000   0.0000 114.0000 14.79785919    19
CTC2_L_00180019-01
1 61120U 25131NR  26037.47792824  .00000000  00000+0  00000-0 0  9992
2 61120  60.0000 216.0000 0000000   0.0000 216.0000 14.79785919    17
CTC2_L_00180019-02
1 61121U 23060ZY  26037.47792824  .00000000  00000+0  00000-0 0  9992
2 61121  60.0000 216.0000 0000000   0.0000 306.0000 14.79785919    18
CTC2_L_00180019-03
1 61122U 23416JX  26037.47792824  .00000000  00000+0  00000-0 0  9998
2 61122  60.0000 216.0000 0000000   0.0000  36.0000 14.79785919    19
CTC2_L_00180019-04
1 61123U 23301FE  26037.47792824  .00000000  00000+0  00000-0 0  9992
2 61123  60.0000 216.0000 0000000   0.0000 126.0000 14.79785919    10
CTC2_L_00180020-01
1 61124U 22858I   26037.47792824  .00000000  00000+0  00000-0 0  9999
2 61124  60.0000 228.0000 0000000   0.0000 228.0000 14.79785919    17
CTC2_L_00180020-02
1 61125U 22649KT  26037.47792824  .00000000  00000+0  00000-0 0  9998
2 61125  60.0000 228.0000 0000000   0.0000 318.0000 14.79785919    18
CTC2_L_00180020-03
1 61126U 25868FT  26037.47792824  .00000000  00000+0  00000-0 0  9995
2 61126  60.0000 228.0000 0000000   0.0000  48.0000 14.79785919    19
CTC2_L_00180020-04
1 61127U 22257MH  26037.47792824  .00000000  00000+0  00000-0 0  9995
2 61127  60.0000 228.0000 0000000   0.0000 138.0000 14.79785919    10
CTC2_L_00180021-01
1 61128U 23189Q   26037.47792824  .00000000  00000+0  00000-0 0  9991
2 61128  60.0000 240.0000 0000000   0.0000 240.0000 14.79785919    19
CTC2_L_00180021-02
1 61129U 26537XW  26037.47792824  .00000000  00000+0  00000-0 0  9992
2 61129  60.0000 240.0000 0000000   0.0000 330.0000 14.79785919    10
CTC2_L_00180021-03
1 61130U 23011JB  26037.47792824  .00000000  00000+0  00000-0 0  9998
2 61130  60.0000 240.0000 0000000   0.0000  60.0000 14.79785919    12
CTC2_L_00180021-04
1 61131U 22851RH  26037.47792824  .00000000  00000+0  00000-0 0  9990
2 61131  60.0000 240.0000 0000000   0.0000 150.0000 14.79785919    13
CTC2_L_00180022-01
1 61132U 25100SF  26037.47792824  .00000000  00000+0  00000-0 0  9991
2 61132  60.0000 252.0000 0000000   0.0000 252.0000 14.79785919    10
CTC2_L_00180022-02
1 61133U 23617XS  26037.47792824  .00000000  00000+0  00000-0 0  9993
2 61133  60.0000 252.0000 0000000   0.0000 342.0000 14.79785919    11
CTC2_L_00180022-03
1 61134U 26475LU  26037.47792824  .00000000  00000+0  00000-0 0  9999
2 61134  60.0000 252.0000 0000000   0.0000  72.0000 14.79785919    12
CTC2_L_00180022-04
1 61135U 24586BK  26037.47792824  .00000000  00000+0  00000-0 0  9991
2 61135  60.0000 252.0000 0000000   0.0000 162.0000 14.79785919    13
CTC2_L_00180023-01
1 61136U 26075PE  26037.47792824  .00000000  00000+0  00000-0 0  9997
2 61136  60.0000 264.0000 0000000   0.0000 264.0000 14.79785919    10
CTC2_L_00180023-02
1 61137U 25838SW  26037.47792824  .00000000  00000+0  00000-0 0  9994
2 61137  60.0000 264.0000 0000000   0.0000 354.0000 14.79785919    11
CTC2_L_00180023-03
1 61138U 22820ID  26037.47792824  .00000000  00000+0  00000-0 0  9993
2 61138  60.0000 264.0000 0000000   0.0000  84.0000 14.79785919    12
CTC2_L_00180023-04
1 61139U 25050MU  26037.47792824  .00000000  00000+0  00000-0 0  9992
2 61139  60.0000 264.0000 0000000   0.0000 174.0000 14.79785919    13
CTC2_L_00180024-01
1 61140U 22326TI  26037.47792824  .00000000  00000+0  00000-0 0  9997
2 61140  60.0000 276.0000 0000000   0.0000 276.0000 14.79785919    11
CTC2_L_00180024-02
1 61141U 24928MI  26037.47792824  .00000000  00000+0  00000-0 0  9998
2 61141  60.0000 276.0000 0000000   0.0000   6.0000 14.79785919    13
CTC2_L_00180024-03
1 61142U 24694ZI  26037.47792824  .00000000  00000+0  00000-0 0  9999
2 61142  60.0000 276.0000 0000000   0.0000  96.0000 14.79785919    13
CTC2_L_00180024-04
1 61143U 26987DJ  26037.47792824  .00000000  00000+0  00000-0 0  9997
2 61143  60.0000 276.0000 0000000   0.0000 186.0000 14.79785919    14
CTC2_L_00180025-01
1 61144U 22569VN  26037.47792824  .00000000  00000+0  00000-0 0  9990
2 61144  60.0000 288.0000 0000000   0.0000 288.0000 14.79785919    11
CTC2_L_00180025-02
1 61145U 26609AR  26037.47792824  .00000000  00000+0  00000-0 0  9990
2 61145  60.0000 288.0000 0000000   0.0000  18.0000 14.79785919    13
CTC2_L_00180025-03
1 61146U 26464VO  26037.47792824  .00000000  00000+0  00000-0 0  9990
2 61146  60.0000 288.0000 0000000   0.0000 108.0000 14.79785919    14
CTC2_L_00180025-04
1 61147U 24464MF  26037.47792824  .00000000  00000+0  00000-0 0  9999
2 61147  60.0000 288.0000 0000000   0.0000 198.0000 14.79785919    14
CTC2_L_00180026-01
1 61148U 22380HW  26037.47792824  .00000000  00000+0  00000-0 0  9995
2 61148  60.0000 300.0000 0000000   0.0000 300.0000 14.79785919    15
CTC2_L_00180026-02
1 61149U 26923UR  26037.47792824  .00000000  00000+0  00000-0 0  9993
2 61149  60.0000 300.0000 0000000   0.0000  30.0000 14.79785919    16
CTC2_L_00180026-03
1 61150U 22728HU  26037.47792824  .00000000  00000+0  00000-0 0  9994
2 61150  60.0000 300.0000 0000000   0.0000 120.0000 14.79785919    18
CTC2_L_00180026-04
1 61151U 24455WF  26037.47792824  .00000000  00000+0  00000-0 0  9994
2 61151  60.0000 300.0000 0000000   0.0000 210.0000 14.79785919    19
CTC2_L_00180027-01
1 61152U 25224PY  26037.47792824  .00000000  00000+0  00000-0 0  9990
2 61152  60.0000 312.0000 0000000   0.0000 312.0000 14.79785919    16
CTC2_L_00180027-02
1 61153U 23323V   26037.47792824  .00000000  00000+0  00000-0 0  9999
2 61153  60.0000 312.0000 0000000   0.0000  42.0000 14.79785919    17
CTC2_L_00180027-03
1 61154U 23051ED  26037.47792824  .00000000  00000+0  00000-0 0  9998
2 61154  60.0000 312.0000 0000000   0.0000 132.0000 14.79785919    18
CTC2_L_00180027-04
1 61155U 24350GN  26037.47792824  .00000000  00000+0  00000-0 0  9992
2 61155  60.0000 312.0000 0000000   0.0000 222.0000 14.79785919    19
CTC2_L_00180028-01
1 61156U 23711EV  26037.47792824  .00000000  00000+0  00000-0 0  9993
2 61156  60.0000 324.0000 0000000   0.0000 324.0000 14.79785919    16
CTC2_L_00180028-02
1 61157U 23630NV  26037.47792824  .00000000  00000+0  00000-0 0  9994
2 61157  60.0000 324.0000 0000000   0.0000  54.0000 14.79785919    17
CTC2_L_00180028-03
1 61158U 26881TN  26037.47792824  .00000000  00000+0  00000-0 0  9996
2 61158  60.0000 324.0000 0000000   0.0000 144.0000 14.79785919    18
CTC2_L_00180028-04
1 61159U 24285EP  26037.47792824  .00000000  00000+0  00000-0 0  9993
2 61159  60.0000 324.0000 0000000   0.0000 234.0000 14.79785919    19
CTC2_L_00180029-01
1 61160U 26821YK  26037.47792824  .00000000  00000+0  00000-0 0  9993
2 61160  60.0000 336.0000 0000000   0.0000 336.0000 14.79785919    17
CTC2_L_00180029-02
1 61161U 26623LE  26037.47792824  .00000000  00000+0  00000-0 0  9994
2 61161  60.0000 336.0000 0000000   0.0000  66.0000 14.79785919    18
CTC2_L_00180029-03
1 61162U 23024JT  26037.47792824  .00000000  00000+0  00000-0 0  9997
2 61162  60.0000 336.0000 0000000   0.0000 156.0000 14.79785919    19
CTC2_L_00180029-04
1 61163U 22275JV  26037.47792824  .00000000  00000+0  00000-0 0  9995
2 61163  60.0000 336.0000 0000000   0.0000 246.0000 14.79785919    10
CTC2_L_00180030-01
1 61164U 23752QT  26037.47792824  .00000000  00000+0  00000-0 0  9997
2 61164  60.0000 348.0000 0000000   0.0000 348.0000 14.79785919    17
CTC2_L_00180030-02
1 61165U 25480RZ  26037.47792824  .00000000  00000+0  00000-0 0  9998
2 61165  60.0000 348.0000 0000000   0.0000  78.0000 14.79785919    18
CTC2_L_00180030-03
1 61166U 22972YA  26037.47792824  .00000000  00000+0  00000-0 0  9992
2 61166  60.0000 348.0000 0000000   0.0000 168.0000 14.79785919    19
CTC2_L_00180030-04
1 61167U 23478LG  26037.47792824  .00000000  00000+0  00000-0 0  9995
2 61167  60.0000 348.0000 0000000   0.0000 258.0000 14.79785919    10
